[{"OBJECT_NAME":"TOMORROW-S2","OBJECT_ID":"2024-149T","EPOCH":"2026-03-09T18:02:42.746496","MEAN_MOTION":15.30674935,"ECCENTRICITY":0.0001648,"INCLINATION":97.3857,"RA_OF_ASC_NODE":150.0385,"ARG_OF_PERICENTER":234.3331,"MEAN_ANOMALY":125.7757,"EPHEMERIS_TYPE":0,"CLASSIFICATION_TYPE":"U","NORAD_CAT_ID":60485,"ELEMENT_SET_NO":999,"REV_AT_EPOCH":8686,"BSTAR":0.00027683033,"MEAN_MOTION_DOT":8.133e-5,"MEAN_MOTION_DDOT":0},{"OBJECT_NAME":"STARLINK-35584","OBJECT_ID":"2025-236W","EPOCH":"2026-03-09T19:36:07.409952","MEAN_MOTION":15.30212537,"ECCENTRICITY":0.00017806,"INCLINATION":53.1596,"RA_OF_ASC_NODE":103.3082,"ARG_OF_PERICENTER":85.4186,"MEAN_ANOMALY":274.7018,"EPHEMERIS_TYPE":0,"CLASSIFICATION_TYPE":"U","NORAD_CAT_ID":66106,"ELEMENT_SET_NO":999,"REV_AT_EPOCH":2296,"BSTAR":0.00066765065,"MEAN_MOTION_DOT":0.00019474,"MEAN_MOTION_DDOT":0}]
