TOMORROW-S2             
1 60485U 24149T   26068.75188364  .00008133  00000+0  27683-3 0  9990
2 60485  97.3857 150.0385 0001648 234.3331 125.7757 15.30674935 86869
STARLINK-35584          
1 66106U 25236W   26068.81675243  .00019474  00000+0  66765-3 0  9992
2 66106  53.1596 103.3082 0001781  85.4186 274.7018 15.30212537 22963
